JILIN-1 GAOFEN 3A       
1 44312U 19032C   26202.29592793  .00008897  00000+0  28053-3 0  9999
2 44312  44.9739 169.1138 0005199 149.7087 210.4099 15.33277205393073
JILIN-1 GAOFEN 2A       
1 44777U 19075A   26202.25373892  .00011245  00000+0  28277-3 0  9993
2 44777  97.4953 286.8593 0004635 329.6499  30.4477 15.40114629370120
JILIN-1 GAOFEN 2B       
1 44836U 19086A   26202.22800111  .00004529  00000+0  20670-3 0  9993
2 44836  97.4863 274.0108 0013795 193.8378 166.2481 15.21040758365667
JILIN-1 GAOFEN 3E       
1 46457U 20065D   26202.28460651  .00061304  00000+0  55474-3 0  9994
2 46457  97.2202 255.7821 0009085  51.8402 308.3676 15.67846994325093
JILIN-1 GAOFEN 3F       
1 46458U 20065E   26202.24821496  .00053413  00000+0  55392-3 0  9990
2 46458  97.2161 252.9011 0010443  36.6009 323.5963 15.64446517325027
JILIN-1 GAOFEN 3G       
1 46459U 20065F   26202.02026609  .00114313  00000+0  66987-3 0  9999
2 46459  97.2213 260.1127 0006277 247.0464 113.0141 15.77960368325263
JILIN-1 GAOFEN 3H       
1 46460U 20065G   26202.27225733  .00084195  00000+0  61130-3 0  9996
2 46460  97.2167 256.4623 0007197 184.0368 176.0839 15.73102488325234
JILIN-1 GAOFEN 2D       
1 49256U 21086A   26202.26977201  .00002868  00000+0  17403-3 0  9990
2 49256  97.6510 324.9744 0033588  30.4436 329.8734 15.10895315265867
JILIN-1 GAOFEN 2F       
1 49338U 21097A   26202.27709635  .00002724  00000+0  18060-3 0  9999
2 49338  97.6738 328.4040 0020169 110.2312 250.1087 15.07978188261453
JILIN-1 GAOFEN 3D27     
1 52444U 22048B   26202.29404667  .00174620  00000+0  74417-3 0  9990
2 52444  97.5719 319.5739 0005683 231.5284 128.5476 15.84744666234860
JILIN-1 GAOFEN 3D28     
1 52445U 22048C   26202.26718944  .00244673  24089-4  80619-3 0  9999
2 52445  97.5670 319.8932 0005788 236.9456 123.1261 15.90434184234929
JILIN-1 GAOFEN 3D29     
1 52446U 22048D   26202.27814157  .00173228  00000+0  73074-3 0  9990
2 52446  97.5721 319.9243 0004691 218.9028 141.1904 15.84969989234888
JILIN-1 GAOFEN 3D31     
1 52448U 22048F   26202.26250949  .00384329  62723-4  87063-3 0  9998
2 52448  97.5740 321.3697 0006874 243.2661 116.7912 15.97519783234996
JILIN-1 GAOFEN 03D09    
1 53445U 22098B   26202.27295829  .00072115  00000+0  57469-3 0  9997
2 53445  97.5628 334.6243 0003750 214.0733 146.0289 15.70949969219977
JILIN-1 GAOFEN 03D43    
1 53448U 22098E   26202.29772512  .00087306  00000+0  58788-3 0  9994
2 53448  97.5619 335.8479 0003969 212.3829 147.7193 15.74877901220056
JILIN-1 GAOFEN 03D08    
1 54251U 22155A   26202.27853991  .00055812  00000+0  50119-3 0  9997
2 54251  97.6245 350.5087 0004595 207.9991 152.1023 15.68097973205152
