{"fetched_at":"2026-07-21T17:53:34.868Z","source":"https://celestrak.org/NORAD/elements/gp.php?NAME=JILIN&FORMAT=JSON","constellation":"jilin-1-gaofen","records":[{"OBJECT_NAME":"JILIN-1 GAOFEN 3A","OBJECT_ID":"2019-032C","EPOCH":"2026-07-21T07:06:08.173152","CLASSIFICATION_TYPE":"U","MEAN_MOTION":15.33277205,"ECCENTRICITY":0.00051994,"INCLINATION":44.9739,"RA_OF_ASC_NODE":169.1138,"ARG_OF_PERICENTER":149.7087,"MEAN_ANOMALY":210.4099,"EPHEMERIS_TYPE":0,"NORAD_CAT_ID":44312,"ELEMENT_SET_NO":999,"REV_AT_EPOCH":39307,"BSTAR":0.00028052837,"MEAN_MOTION_DOT":0.00008897,"MEAN_MOTION_DDOT":0},{"OBJECT_NAME":"JILIN-1 GAOFEN 2A","OBJECT_ID":"2019-075A","EPOCH":"2026-07-21T06:05:23.042688","CLASSIFICATION_TYPE":"U","MEAN_MOTION":15.40114629,"ECCENTRICITY":0.00046354,"INCLINATION":97.4953,"RA_OF_ASC_NODE":286.8593,"ARG_OF_PERICENTER":329.6499,"MEAN_ANOMALY":30.4477,"EPHEMERIS_TYPE":0,"NORAD_CAT_ID":44777,"ELEMENT_SET_NO":999,"REV_AT_EPOCH":37012,"BSTAR":0.00028277324,"MEAN_MOTION_DOT":0.00011245,"MEAN_MOTION_DDOT":0},{"OBJECT_NAME":"JILIN-1 GAOFEN 2B","OBJECT_ID":"2019-086A","EPOCH":"2026-07-21T05:28:19.295904","CLASSIFICATION_TYPE":"U","MEAN_MOTION":15.21040758,"ECCENTRICITY":0.0013795,"INCLINATION":97.4863,"RA_OF_ASC_NODE":274.0108,"ARG_OF_PERICENTER":193.8378,"MEAN_ANOMALY":166.2481,"EPHEMERIS_TYPE":0,"NORAD_CAT_ID":44836,"ELEMENT_SET_NO":999,"REV_AT_EPOCH":36566,"BSTAR":0.00020670139,"MEAN_MOTION_DOT":0.00004529,"MEAN_MOTION_DDOT":0},{"OBJECT_NAME":"JILIN-1 GAOFEN 3E","OBJECT_ID":"2020-065D","EPOCH":"2026-07-21T06:49:50.002464","CLASSIFICATION_TYPE":"U","MEAN_MOTION":15.67846994,"ECCENTRICITY":0.00090851,"INCLINATION":97.2202,"RA_OF_ASC_NODE":255.7821,"ARG_OF_PERICENTER":51.8402,"MEAN_ANOMALY":308.3676,"EPHEMERIS_TYPE":0,"NORAD_CAT_ID":46457,"ELEMENT_SET_NO":999,"REV_AT_EPOCH":32509,"BSTAR":0.00055473852,"MEAN_MOTION_DOT":0.00061304,"MEAN_MOTION_DDOT":0},{"OBJECT_NAME":"JILIN-1 GAOFEN 3F","OBJECT_ID":"2020-065E","EPOCH":"2026-07-21T05:57:25.772544","CLASSIFICATION_TYPE":"U","MEAN_MOTION":15.64446517,"ECCENTRICITY":0.00104439,"INCLINATION":97.2161,"RA_OF_ASC_NODE":252.9011,"ARG_OF_PERICENTER":36.6009,"MEAN_ANOMALY":323.5963,"EPHEMERIS_TYPE":0,"NORAD_CAT_ID":46458,"ELEMENT_SET_NO":999,"REV_AT_EPOCH":32502,"BSTAR":0.00055391563,"MEAN_MOTION_DOT":0.00053413,"MEAN_MOTION_DDOT":0},{"OBJECT_NAME":"JILIN-1 GAOFEN 3G","OBJECT_ID":"2020-065F","EPOCH":"2026-07-21T00:29:10.990176","CLASSIFICATION_TYPE":"U","MEAN_MOTION":15.77960368,"ECCENTRICITY":0.0006277,"INCLINATION":97.2213,"RA_OF_ASC_NODE":260.1127,"ARG_OF_PERICENTER":247.0464,"MEAN_ANOMALY":113.0141,"EPHEMERIS_TYPE":0,"NORAD_CAT_ID":46459,"ELEMENT_SET_NO":999,"REV_AT_EPOCH":32526,"BSTAR":0.00066987275,"MEAN_MOTION_DOT":0.00114313,"MEAN_MOTION_DDOT":0},{"OBJECT_NAME":"JILIN-1 GAOFEN 3H","OBJECT_ID":"2020-065G","EPOCH":"2026-07-21T06:32:03.033312","CLASSIFICATION_TYPE":"U","MEAN_MOTION":15.73102488,"ECCENTRICITY":0.00071975,"INCLINATION":97.2167,"RA_OF_ASC_NODE":256.4623,"ARG_OF_PERICENTER":184.0368,"MEAN_ANOMALY":176.0839,"EPHEMERIS_TYPE":0,"NORAD_CAT_ID":46460,"ELEMENT_SET_NO":999,"REV_AT_EPOCH":32523,"BSTAR":0.00061129847,"MEAN_MOTION_DOT":0.00084195,"MEAN_MOTION_DDOT":0},{"OBJECT_NAME":"JILIN-1 GAOFEN 2D","OBJECT_ID":"2021-086A","EPOCH":"2026-07-21T06:28:28.301664","CLASSIFICATION_TYPE":"U","MEAN_MOTION":15.10895315,"ECCENTRICITY":0.00335883,"INCLINATION":97.651,"RA_OF_ASC_NODE":324.9744,"ARG_OF_PERICENTER":30.4436,"MEAN_ANOMALY":329.8734,"EPHEMERIS_TYPE":0,"NORAD_CAT_ID":49256,"ELEMENT_SET_NO":999,"REV_AT_EPOCH":26586,"BSTAR":0.00017402819,"MEAN_MOTION_DOT":0.00002868,"MEAN_MOTION_DDOT":0},{"OBJECT_NAME":"JILIN-1 GAOFEN 2F","OBJECT_ID":"2021-097A","EPOCH":"2026-07-21T06:39:01.124640","CLASSIFICATION_TYPE":"U","MEAN_MOTION":15.07978188,"ECCENTRICITY":0.00201694,"INCLINATION":97.6738,"RA_OF_ASC_NODE":328.404,"ARG_OF_PERICENTER":110.2312,"MEAN_ANOMALY":250.1087,"EPHEMERIS_TYPE":0,"NORAD_CAT_ID":49338,"ELEMENT_SET_NO":999,"REV_AT_EPOCH":26145,"BSTAR":0.00018060337,"MEAN_MOTION_DOT":0.00002724,"MEAN_MOTION_DDOT":0},{"OBJECT_NAME":"JILIN-1 GAOFEN 3D27","OBJECT_ID":"2022-048B","EPOCH":"2026-07-21T07:03:25.632288","CLASSIFICATION_TYPE":"U","MEAN_MOTION":15.84744666,"ECCENTRICITY":0.0005683,"INCLINATION":97.5719,"RA_OF_ASC_NODE":319.5739,"ARG_OF_PERICENTER":231.5284,"MEAN_ANOMALY":128.5476,"EPHEMERIS_TYPE":0,"NORAD_CAT_ID":52444,"ELEMENT_SET_NO":999,"REV_AT_EPOCH":23486,"BSTAR":0.00074417115,"MEAN_MOTION_DOT":0.0017462,"MEAN_MOTION_DDOT":0},{"OBJECT_NAME":"JILIN-1 GAOFEN 3D28","OBJECT_ID":"2022-048C","EPOCH":"2026-07-21T06:24:45.167616","CLASSIFICATION_TYPE":"U","MEAN_MOTION":15.90434184,"ECCENTRICITY":0.00057881,"INCLINATION":97.567,"RA_OF_ASC_NODE":319.8932,"ARG_OF_PERICENTER":236.9456,"MEAN_ANOMALY":123.1261,"EPHEMERIS_TYPE":0,"NORAD_CAT_ID":52445,"ELEMENT_SET_NO":999,"REV_AT_EPOCH":23492,"BSTAR":0.00080619427,"MEAN_MOTION_DOT":0.00244673,"MEAN_MOTION_DDOT":0.000024089403},{"OBJECT_NAME":"JILIN-1 GAOFEN 3D29","OBJECT_ID":"2022-048D","EPOCH":"2026-07-21T06:40:31.431648","CLASSIFICATION_TYPE":"U","MEAN_MOTION":15.84969989,"ECCENTRICITY":0.0004691,"INCLINATION":97.5721,"RA_OF_ASC_NODE":319.9243,"ARG_OF_PERICENTER":218.9028,"MEAN_ANOMALY":141.1904,"EPHEMERIS_TYPE":0,"NORAD_CAT_ID":52446,"ELEMENT_SET_NO":999,"REV_AT_EPOCH":23488,"BSTAR":0.00073074328,"MEAN_MOTION_DOT":0.00173228,"MEAN_MOTION_DDOT":0},{"OBJECT_NAME":"JILIN-1 GAOFEN 3D31","OBJECT_ID":"2022-048F","EPOCH":"2026-07-21T06:18:00.819936","CLASSIFICATION_TYPE":"U","MEAN_MOTION":15.97519783,"ECCENTRICITY":0.00068745,"INCLINATION":97.574,"RA_OF_ASC_NODE":321.3697,"ARG_OF_PERICENTER":243.2661,"MEAN_ANOMALY":116.7912,"EPHEMERIS_TYPE":0,"NORAD_CAT_ID":52448,"ELEMENT_SET_NO":999,"REV_AT_EPOCH":23499,"BSTAR":0.00087063283,"MEAN_MOTION_DOT":0.00384329,"MEAN_MOTION_DDOT":0.000062723365},{"OBJECT_NAME":"JILIN-1 GAOFEN 03D09","OBJECT_ID":"2022-098B","EPOCH":"2026-07-21T06:33:03.596256","CLASSIFICATION_TYPE":"U","MEAN_MOTION":15.70949969,"ECCENTRICITY":0.00037503,"INCLINATION":97.5628,"RA_OF_ASC_NODE":334.6243,"ARG_OF_PERICENTER":214.0733,"MEAN_ANOMALY":146.0289,"EPHEMERIS_TYPE":0,"NORAD_CAT_ID":53445,"ELEMENT_SET_NO":999,"REV_AT_EPOCH":21997,"BSTAR":0.00057468557,"MEAN_MOTION_DOT":0.00072115,"MEAN_MOTION_DDOT":0},{"OBJECT_NAME":"JILIN-1 GAOFEN 03D43","OBJECT_ID":"2022-098E","EPOCH":"2026-07-21T07:08:43.450368","CLASSIFICATION_TYPE":"U","MEAN_MOTION":15.74877901,"ECCENTRICITY":0.00039693,"INCLINATION":97.5619,"RA_OF_ASC_NODE":335.8479,"ARG_OF_PERICENTER":212.3829,"MEAN_ANOMALY":147.7193,"EPHEMERIS_TYPE":0,"NORAD_CAT_ID":53448,"ELEMENT_SET_NO":999,"REV_AT_EPOCH":22005,"BSTAR":0.00058788341,"MEAN_MOTION_DOT":0.00087306,"MEAN_MOTION_DDOT":0},{"OBJECT_NAME":"JILIN-1 GAOFEN 03D08","OBJECT_ID":"2022-155A","EPOCH":"2026-07-21T06:41:05.848224","CLASSIFICATION_TYPE":"U","MEAN_MOTION":15.68097973,"ECCENTRICITY":0.0004595,"INCLINATION":97.6245,"RA_OF_ASC_NODE":350.5087,"ARG_OF_PERICENTER":207.9991,"MEAN_ANOMALY":152.1023,"EPHEMERIS_TYPE":0,"NORAD_CAT_ID":54251,"ELEMENT_SET_NO":999,"REV_AT_EPOCH":20515,"BSTAR":0.00050118733,"MEAN_MOTION_DOT":0.00055812,"MEAN_MOTION_DDOT":0}]}
